SPACEBEE-126            
1 52011U 22026D   22247.55213144  .00012041  00000+0  61249-3 0  9995
2 52011  97.5059 246.5277 0026081   4.4290 355.7169 15.16688006 26178
SPACEBEE-118            
1 52012U 22026E   22246.98865939  .00009696  00000+0  48868-3 0  9991
2 52012  97.5067 246.0739 0025281  11.3032 348.8763 15.17086204 26107
SPACEBEE-120            
1 52013U 22026F   22247.52902039  .00011175  00000+0  56529-3 0  9994
2 52013  97.5061 246.5545 0026909   2.2115 357.9232 15.16881956 26176
SPACEBEE-122            
1 52014U 22026G   22247.52814891  .00011746  00000+0  59387-3 0  9992
2 52014  97.5062 246.5603 0025847   5.0556 355.0933 15.16912152 26173
SPACEBEE-119            
1 52015U 22026H   22247.55151394  .00011605  00000+0  59284-3 0  9998
2 52015  97.5068 246.5546 0026681   5.6294 354.5233 15.16532376 26171
SPACEBEE-115            
1 52016U 22026J   22247.46829165  .00011179  00000+0  56640-3 0  9996
2 52016  97.5074 246.5154 0026296   5.6310 354.5214 15.16840410 26164
SPACEBEENZ-14           
1 52018U 22026L   22247.48621766  .00014760  00000+0  72994-3 0  9996
2 52018  97.5065 246.6325 0025819   5.1240 355.0253 15.17628456 26179
SPACEBEENZ-11           
1 52019U 22026M   22247.54301361  .00016134  00000+0  79382-3 0  9995
2 52019  97.5065 246.7081 0025713   4.9469 355.2014 15.17788948 26140
SPACEBEE-127            
1 52020U 22026N   22247.54134833  .00011420  00000+0  58038-3 0  9993
2 52020  97.5062 246.5451 0026301   4.8866 355.2619 15.16728202 26127
SPACEBEE-125            
1 52021U 22026P   22247.50860393  .00011721  00000+0  58595-3 0  9999
2 52021  97.5052 246.5761 0028088   4.7182 355.4311 15.17254703 26048
SPACEBEE-117            
1 52022U 22026Q   22247.47190362  .00011291  00000+0  57303-3 0  9996
2 52022  97.5074 246.5114 0026350   5.2108 354.9395 15.16777896 26036
SPACEBEE-116            
1 52023U 22026R   22247.46441105  .00011280  00000+0  57052-3 0  9999
2 52023  97.5077 246.5226 0026182   5.7261 354.4266 15.16902675 26039
SPACEBEE-113            
1 52024U 22026S   22247.52471805  .00011071  00000+0  55881-3 0  9993
2 52024  97.5071 246.5874 0027822   1.8068 358.3260 15.16937006 26041
SPACEBEE-112            
1 52025U 22026T   22247.51098482  .00012411  00000+0  62163-3 0  9999
2 52025  97.5068 246.6052 0026114   5.2202 354.9298 15.17221274 26045
SPACEBEENZ-13           
1 52026U 22026U   22246.95635229  .00012615  00000+0  62396-3 0  9997
2 52026  97.5063 246.1112 0025920   6.9515 353.2073 15.17659809 25874
SPACEBEE-123            
1 52027U 22026V   22247.54757312  .00011844  00000+0  60391-3 0  9998
2 52027  97.5054 246.5294 0026363   5.3014 354.8493 15.16600884 25959
SPACEBEENZ-12           
1 52028U 22026W   22246.96940862  .00011632  00000+0  57934-3 0  9992
2 52028  97.5074 246.1116 0026070   7.3057 352.8551 15.17433835 25960
SPACEBEE-124            
1 52029U 22026X   22247.48352592  .00011374  00000+0  58077-3 0  9990
2 52029  97.5053 246.4608 0026457   5.8150 354.3385 15.16559918 24661
SPACEBEE-136            
1 52164U 22033H   22247.18232874  .00011856  00000+0  48125-3 0  9993
2 52164  97.3766 327.3649 0010253 101.8831 258.3557 15.24699641 23675
SPACEBEE-138            
1 52166U 22033K   22247.19047721  .00011650  00000+0  47407-3 0  9995
2 52166  97.3791 327.3985 0011616  93.3945 266.8621 15.24607030 23670
SPACEBEE-130            
1 52176U 22033V   22247.18684268  .00011881  00000+0  48157-3 0  9997
2 52176  97.3778 327.3779 0008363  98.7376 261.4809 15.24764588 23670
SPACEBEE-139            
1 52177U 22033W   22247.22440704  .00012243  00000+0  50527-3 0  9995
2 52177  97.3795 327.3571 0011331  99.0756 261.1764 15.24121789 23672
SPACEBEE-129            
1 52179U 22033Y   22247.16391377  .00011008  00000+0  45524-3 0  9990
2 52179  97.3778 327.2615 0009994 102.2922 257.9435 15.24092377 23664
SPACEBEE-134            
1 52180U 22033Z   22247.17218070  .00008565  00000+0  35944-3 0  9990
2 52180  97.3768 327.2514 0010284 101.4247 258.8146 15.23666146 23667
SPACEBEE-131            
1 52181U 22033AA  22247.22049764  .00010957  00000+0  45144-3 0  9990
2 52181  97.3781 327.3426 0010113 103.1364 257.1003 15.24220258 23672
SPACEBEE-128            
1 52182U 22033AB  22247.22688772  .00011543  00000+0  47623-3 0  9995
2 52182  97.3797 327.3605 0010308 102.0766 258.1627 15.24158746 23674
SPACEBEE-133            
1 52183U 22033AC  22247.21845704  .00011008  00000+0  45330-3 0  9994
2 52183  97.3782 327.3474 0010171 102.5563 257.6813 15.24236929 23661
SPACEBEE-132            
1 52185U 22033AE  22247.53121859  .00015670  00000+0  63871-3 0  9998
2 52185  97.3787 327.7019 0009849 112.4630 247.7652 15.24499521 23729
SPACEBEE-137            
1 52186U 22033AF  22247.48517320  .00013811  00000+0  56998-3 0  9992
2 52186  97.3783 327.6076 0010536 100.7811 259.4613 15.24101485 23719
SPACEBEE-135            
1 52187U 22033AG  22247.46441574  .00015321  00000+0  62453-3 0  9999
2 52187  97.3794 327.6511 0009635  98.0312 262.2019 15.24504480 23713
SPACEBEE-143            
1 52394U 22047A   22247.46559044  .00008202  00000+0  45064-3 0  9995
2 52394  97.4468 330.6397 0007386 258.7153 101.3249 15.14337296 20305
SPACEBEENZ-15           
1 52395U 22047B   22247.23250566  .00008851  00000+0  47662-3 0  9994
2 52395  97.4470 330.4897 0007521 256.3641 103.6754 15.15029060 20279
SPACEBEENZ-16           
1 52396U 22047C   22247.49659103  .00011069  00000+0  59491-3 0  9991
2 52396  97.4470 330.7485 0007508 255.6683 104.3716 15.15035373 20314
SPACEBEENZ-17           
1 52397U 22047D   22247.16788117  .00008600  00000+0  46366-3 0  9998
2 52397  97.4470 330.4234 0007520 256.8815 103.1578 15.14997856 20267
SPACEBEENZ-18           
1 52398U 22047E   22247.16854030  .00008074  00000+0  43563-3 0  9998
2 52398  97.4470 330.4227 0007496 256.9648 103.0748 15.14988074 20267
SPACEBEE-140            
1 52399U 22047F   22247.18173788  .00007471  00000+0  40673-3 0  9994
2 52399  97.4470 330.4066 0007525 257.2319 102.8073 15.14696183 20288
SPACEBEE-141            
1 52400U 22047G   22247.45701705  .00008848  00000+0  48412-3 0  9991
2 52400  97.4468 330.6511 0007511 256.3132 103.7264 15.14461719 20303
SPACEBEE-142            
1 52401U 22047H   22247.46394592  .00008097  00000+0  44525-3 0  9992
2 52401  97.4465 330.6399 0007332 257.1246 102.9167 15.14313778 20305
SPACEBEENZ-20           
1 52402U 22047J   22247.17392428  .00008585  00000+0  46388-3 0  9998
2 52402  97.4462 330.4041 0008212 260.7084  99.3219 15.14914244 20260
SPACEBEENZ-22           
1 52403U 22047K   22247.17737962  .00008555  00000+0  46323-3 0  9991
2 52403  97.4463 330.3996 0008268 260.3911  99.6387 15.14839890 20268
SPACEBEENZ-19           
1 52404U 22047L   22247.17247134  .00008692  00000+0  46924-3 0  9998
2 52404  97.4462 330.4067 0008289 260.6574  99.3721 15.14940680 20268
SPACEBEENZ-21           
1 52405U 22047M   22247.17471400  .00008807  00000+0  47594-3 0  9996
2 52405  97.4462 330.4033 0008215 260.8388  99.1915 15.14902298 20262
SPACEBEE-148            
1 52406U 22047N   22247.51835293  .00010097  00000+0  54928-3 0  9992
2 52406  97.4463 330.7100 0008210 259.9357 100.0949 15.14623553 20311
SPACEBEE-149            
1 52407U 22047P   22247.47015623  .00008379  00000+0  46146-3 0  9998
2 52407  97.4460 330.6189 0008060 260.1244  99.9078 15.14242576 20307
SPACEBEE-153            
1 52408U 22047Q   22247.45486040  .00009232  00000+0  50338-3 0  9999
2 52408  97.4491 330.6877 0008244 273.2419  86.7870 15.14566915 20309
SPACEBEE-150            
1 52409U 22047R   22247.20196392  .00005716  00000+0  31528-3 0  9994
2 52409  97.4462 330.3686 0008064 262.2344  97.7972 15.14328479 20269
SPACEBEE-144            
1 52410U 22047S   22247.20117520  .00005822  00000+0  32088-3 0  9992
2 52410  97.4469 330.3815 0007412 260.9175  99.1218 15.14352468 20269
SPACEBEE-145            
1 52411U 22047T   22247.20453062  .00005605  00000+0  30965-3 0  9998
2 52411  97.4467 330.3757 0007267 260.8301  99.2109 15.14286468 20267
SPACEBEE-146            
1 52412U 22047U   22247.21288729  .00004778  00000+0  26586-3 0  9990
2 52412  97.4464 330.3607 0007271 261.0426  98.9983 15.14100833 20262
SPACEBEE-151            
1 52413U 22047V   22247.47025872  .00007863  00000+0  43281-3 0  9996
2 52413  97.4461 330.6211 0007985 262.4462  97.5863 15.14282071 20303
SPACEBEE-152            
1 52414U 22047W   22247.47676042  .00007591  00000+0  41924-3 0  9998
2 52414  97.4460 330.6096 0007949 261.6416  98.3915 15.14173877 20304
SPACEBEE-147            
1 52415U 22047X   22247.20995407  .00005409  00000+0  29948-3 0  9997
2 52415  97.4468 330.3699 0007258 263.1217  96.9189 15.14224757 20264
SPACEBEE-155            
1 52416U 22047Y   22247.48503146  .00006124  00000+0  34152-3 0  9991
2 52416  97.4456 330.5971 0008329 267.0706  92.9572 15.13902351 20302
SPACEBEE-154            
1 52417U 22047Z   22247.54570466  .00007239  00000+0  40070-3 0  9992
2 52417  97.4461 330.6729 0007846 263.4918  96.5421 15.14113599 20312
